{"type": "FeatureCollection", "features": [ {"type": "Feature", "properties": {"norad_id": 30048, "name": "FENGYUN 1C DEB", "group": "fengyun-1c-debris", "lat": 42.02802028112145, "lon": -142.9589826110433, "alt_km": 1093.2353479866242, "timestamp": "2025-12-26T05:31:12.780949+00:00", "meta": {"OBJECT_NAME": "FENGYUN 1C DEB", "OBJECT_ID": "1999-025NZ", "EPOCH": "2025-12-25T13:48:33.035040", "MEAN_MOTION": 13.79899896, "ECCENTRICITY": 0.0186443, "INCLINATION": 98.6658, "RA_OF_ASC_NODE": 224.3414, "ARG_OF_PERICENTER": 210.1179, "MEAN_ANOMALY": 182.9426, "EPHEMERIS_TYPE": 0, "CLASSIFICATION_TYPE": "U", "NORAD_CAT_ID": 30048, "ELEMENT_SET_NO": 999, "REV_AT_EPOCH": 95303, "BSTAR": 0.0002063, "MEAN_MOTION_DOT": 2.04e-06, "MEAN_MOTION_DDOT": 0}, "tle": {"line1": "1 30048U 99025NZ  25359.57538235  .00000204  00000+0  20630-3 0  9991", "line2": "2 30048  98.6658 224.3414 0186443 210.1179 182.9426 13.79899896953037"}}, "geometry": {"type": "Point", "coordinates": [-142.9589826110433, 42.02802028112145]}}, {"type": "Feature", "properties": {"norad_id": 30050, "name": "FENGYUN 1C DEB", "group": "fengyun-1c-debris", "lat": -81.24595219335181, "lon": 7.7480587989738074, "alt_km": 921.8006260018674, "timestamp": "2025-12-26T05:31:12.780959+00:00", "meta": {"OBJECT_NAME": "FENGYUN 1C DEB", "OBJECT_ID": "1999-025PB", "EPOCH": "2025-12-25T19:48:12.389760", "MEAN_MOTION": 13.85088382, "ECCENTRICITY": 0.01709486, "INCLINATION": 96.8194, "RA_OF_ASC_NODE": 316.4593, "ARG_OF_PERICENTER": 353.0578, "MEAN_ANOMALY": 66.7155, "EPHEMERIS_TYPE": 0, "CLASSIFICATION_TYPE": "U", "NORAD_CAT_ID": 30050, "ELEMENT_SET_NO": 999, "REV_AT_EPOCH": 95383, "BSTAR": 0.0012822155, "MEAN_MOTION_DOT": 1.6e-05, "MEAN_MOTION_DDOT": 0}, "tle": {"line1": "1 30050U 99025PB  25359.82514340  .00001600  00000+0  12822-2 0  9997", "line2": "2 30050  96.8194 316.4593 0170948 353.0578  66.7155 13.85088382953832"}}, "geometry": {"type": "Point", "coordinates": [7.7480587989738074, -81.24595219335181]}}, {"type": "Feature", "properties": {"norad_id": 30052, "name": "FENGYUN 1C DEB", "group": "fengyun-1c-debris", "lat": -27.771400127790805, "lon": 30.40343363842897, "alt_km": 1142.3034555397926, "timestamp": "2025-12-26T05:31:12.780970+00:00", "meta": {"OBJECT_NAME": "FENGYUN 1C DEB", "OBJECT_ID": "1999-025PD", "EPOCH": "2025-12-25T16:18:28.455264", "MEAN_MOTION": 13.72975255, "ECCENTRICITY": 0.02894023, "INCLINATION": 99.2982, "RA_OF_ASC_NODE": 24.9191, "ARG_OF_PERICENTER": 198.3388, "MEAN_ANOMALY": 291.6264, "EPHEMERIS_TYPE": 0, "CLASSIFICATION_TYPE": "U", "NORAD_CAT_ID": 30052, "ELEMENT_SET_NO": 999, "REV_AT_EPOCH": 94732, "BSTAR": 0.00045311856, "MEAN_MOTION_DOT": 5.22e-06, "MEAN_MOTION_DDOT": 0}, "tle": {"line1": "1 30052U 99025PD  25359.67949601  .00000522  00000+0  45312-3 0  9997", "line2": "2 30052  99.2982  24.9191 0289402 198.3388 291.6264 13.72975255947323"}}, "geometry": {"type": "Point", "coordinates": [30.40343363842897, -27.771400127790805]}}, {"type": "Feature", "properties": {"norad_id": 30053, "name": "FENGYUN 1C DEB", "group": "fengyun-1c-debris", "lat": 63.69604489663289, "lon": 10.181706034140499, "alt_km": 1147.974352325139, "timestamp": "2025-12-26T05:31:12.780980+00:00", "meta": {"OBJECT_NAME": "FENGYUN 1C DEB", "OBJECT_ID": "1999-025PE", "EPOCH": "2025-12-25T22:49:53.070816", "MEAN_MOTION": 13.94218479, "ECCENTRICITY": 0.03314858, "INCLINATION": 98.576, "RA_OF_ASC_NODE": 172.1478, "ARG_OF_PERICENTER": 301.6853, "MEAN_ANOMALY": 214.7477, "EPHEMERIS_TYPE": 0, "CLASSIFICATION_TYPE": "U", "NORAD_CAT_ID": 30053, "ELEMENT_SET_NO": 999, "REV_AT_EPOCH": 95170, "BSTAR": 0.0018081922, "MEAN_MOTION_DOT": 3.747e-05, "MEAN_MOTION_DDOT": 0}, "tle": {"line1": "1 30053U 99025PE  25359.95130869  .00003747  00000+0  18082-2 0  9992", "line2": "2 30053  98.5760 172.1478 0331485 301.6853 214.7477 13.94218479951700"}}, "geometry": {"type": "Point", "coordinates": [10.181706034140499, 63.69604489663289]}}, {"type": "Feature", "properties": {"norad_id": 30054, "name": "FENGYUN 1C DEB", "group": "fengyun-1c-debris", "lat": 61.90234084228488, "lon": -129.86168166299578, "alt_km": 1161.3734361216611, "timestamp": "2025-12-26T05:31:12.780991+00:00", "meta": {"OBJECT_NAME": "FENGYUN 1C DEB", "OBJECT_ID": "1999-025PF", "EPOCH": "2025-12-25T15:32:47.141376", "MEAN_MOTION": 13.69879736, "ECCENTRICITY": 0.0275314, "INCLINATION": 99.3702, "RA_OF_ASC_NODE": 31.5561, "ARG_OF_PERICENTER": 331.675, "MEAN_ANOMALY": 153.2622, "EPHEMERIS_TYPE": 0, "CLASSIFICATION_TYPE": "U", "NORAD_CAT_ID": 30054, "ELEMENT_SET_NO": 999, "REV_AT_EPOCH": 94525, "BSTAR": 0.00048685, "MEAN_MOTION_DOT": 5.12e-06, "MEAN_MOTION_DDOT": 0}, "tle": {"line1": "1 30054U 99025PF  25359.64776784  .00000512  00000+0  48685-3 0  9991", "line2": "2 30054  99.3702  31.5561 0275314 331.6750 153.2622 13.69879736945257"}}, "geometry": {"type": "Point", "coordinates": [-129.86168166299578, 61.90234084228488]}}, {"type": "Feature", "properties": {"norad_id": 30056, "name": "FENGYUN 1C DEB", "group": "fengyun-1c-debris", "lat": -77.962063481931, "lon": -39.18389347322963, "alt_km": 973.7618835382264, "timestamp": "2025-12-26T05:31:12.781001+00:00", "meta": {"OBJECT_NAME": "FENGYUN 1C DEB", "OBJECT_ID": "1999-025PH", "EPOCH": "2025-12-25T12:32:30.651072", "MEAN_MOTION": 13.74061904, "ECCENTRICITY": 0.0299039, "INCLINATION": 98.3229, "RA_OF_ASC_NODE": 183.5474, "ARG_OF_PERICENTER": 176.2965, "MEAN_ANOMALY": 184.0501, "EPHEMERIS_TYPE": 0, "CLASSIFICATION_TYPE": "U", "NORAD_CAT_ID": 30056, "ELEMENT_SET_NO": 999, "REV_AT_EPOCH": 94151, "BSTAR": 0.0025009, "MEAN_MOTION_DOT": 3.213e-05, "MEAN_MOTION_DDOT": 0}, "tle": {"line1": "1 30056U 99025PH  25359.52257698  .00003213  00000+0  25009-2 0  9993", "line2": "2 30056  98.3229 183.5474 0299039 176.2965 184.0501 13.74061904941513"}}, "geometry": {"type": "Point", "coordinates": [-39.18389347322963, -77.962063481931]}}, {"type": "Feature", "properties": {"norad_id": 30057, "name": "FENGYUN 1C DEB", "group": "fengyun-1c-debris", "lat": -73.156397622842, "lon": 98.77815557596334, "alt_km": 1268.067961249989, "timestamp": "2025-12-26T05:31:12.781011+00:00", "meta": {"OBJECT_NAME": "FENGYUN 1C DEB", "OBJECT_ID": "1999-025PJ", "EPOCH": "2025-12-25T10:47:21.082848", "MEAN_MOTION": 13.57152056, "ECCENTRICITY": 0.0291741, "INCLINATION": 98.8824, "RA_OF_ASC_NODE": 66.9733, "ARG_OF_PERICENTER": 113.782, "MEAN_ANOMALY": 319.0616, "EPHEMERIS_TYPE": 0, "CLASSIFICATION_TYPE": "U", "NORAD_CAT_ID": 30057, "ELEMENT_SET_NO": 999, "REV_AT_EPOCH": 93408, "BSTAR": 0.0012196, "MEAN_MOTION_DOT": 1.11e-05, "MEAN_MOTION_DDOT": 0}, "tle": {"line1": "1 30057U 99025PJ  25359.44954957  .00001110  00000+0  12196-2 0  9994", "line2": "2 30057  98.8824  66.9733 0291741 113.7820 319.0616 13.57152056934081"}}, "geometry": {"type": "Point", "coordinates": [98.77815557596334, -73.156397622842]}}, {"type": "Feature", "properties": {"norad_id": 30058, "name": "FENGYUN 1C DEB", "group": "fengyun-1c-debris", "lat": -75.74516340323872, "lon": 46.07551709516433, "alt_km": 1308.7556439792406, "timestamp": "2025-12-26T05:31:12.781021+00:00", "meta": {"OBJECT_NAME": "FENGYUN 1C DEB", "OBJECT_ID": "1999-025PK", "EPOCH": "2025-12-25T22:58:24.150144", "MEAN_MOTION": 13.48253074, "ECCENTRICITY": 0.03157584, "INCLINATION": 99.6499, "RA_OF_ASC_NODE": 3.7701, "ARG_OF_PERICENTER": 119.5682, "MEAN_ANOMALY": 276.484, "EPHEMERIS_TYPE": 0, "CLASSIFICATION_TYPE": "U", "NORAD_CAT_ID": 30058, "ELEMENT_SET_NO": 999, "REV_AT_EPOCH": 93026, "BSTAR": 0.00070420712, "MEAN_MOTION_DOT": 5.51e-06, "MEAN_MOTION_DDOT": 0}, "tle": {"line1": "1 30058U 99025PK  25359.95722396  .00000551  00000+0  70421-3 0  9995", "line2": "2 30058  99.6499   3.7701 0315758 119.5682 276.4840 13.48253074930261"}}, "geometry": {"type": "Point", "coordinates": [46.07551709516433, -75.74516340323872]}}, {"type": "Feature", "properties": {"norad_id": 30059, "name": "FENGYUN 1C DEB", "group": "fengyun-1c-debris", "lat": -58.20880348316637, "lon": 8.42687405382554, "alt_km": 887.7315189061974, "timestamp": "2025-12-26T05:31:12.781031+00:00", "meta": {"OBJECT_NAME": "FENGYUN 1C DEB", "OBJECT_ID": "1999-025PL", "EPOCH": "2025-12-25T22:48:30.739392", "MEAN_MOTION": 13.45501114, "ECCENTRICITY": 0.03264104, "INCLINATION": 98.8233, "RA_OF_ASC_NODE": 353.6683, "ARG_OF_PERICENTER": 269.096, "MEAN_ANOMALY": 115.7962, "EPHEMERIS_TYPE": 0, "CLASSIFICATION_TYPE": "U", "NORAD_CAT_ID": 30059, "ELEMENT_SET_NO": 999, "REV_AT_EPOCH": 92975, "BSTAR": 0.00028381625, "MEAN_MOTION_DOT": 1.93e-06, "MEAN_MOTION_DDOT": 0}, "tle": {"line1": "1 30059U 99025PL  25359.95035578  .00000193  00000+0  28382-3 0  9996", "line2": "2 30059  98.8233 353.6683 0326410 269.0960 115.7962 13.45501114929752"}}, "geometry": {"type": "Point", "coordinates": [8.42687405382554, -58.20880348316637]}}, {"type": "Feature", "properties": {"norad_id": 30060, "name": "FENGYUN 1C DEB", "group": "fengyun-1c-debris", "lat": 75.91572897236955, "lon": 86.79897257781982, "alt_km": 961.7649545209388, "timestamp": "2025-12-26T05:31:12.781060+00:00", "meta": {"OBJECT_NAME": "FENGYUN 1C DEB", "OBJECT_ID": "1999-025PM", "EPOCH": "2025-12-25T02:58:21.019296", "MEAN_MOTION": 13.43805985, "ECCENTRICITY": 0.03460059, "INCLINATION": 99.3148, "RA_OF_ASC_NODE": 224.9186, "ARG_OF_PERICENTER": 40.7835, "MEAN_ANOMALY": 107.8288, "EPHEMERIS_TYPE": 0, "CLASSIFICATION_TYPE": "U", "NORAD_CAT_ID": 30060, "ELEMENT_SET_NO": 999, "REV_AT_EPOCH": 92409, "BSTAR": 0.0025586713, "MEAN_MOTION_DOT": 2.074e-05, "MEAN_MOTION_DDOT": 0}, "tle": {"line1": "1 30060U 99025PM  25359.12385439  .00002074  00000+0  25587-2 0  9994", "line2": "2 30060  99.3148 224.9186 0346005  40.7835 107.8288 13.43805985924096"}}, "geometry": {"type": "Point", "coordinates": [86.79897257781982, 75.91572897236955]}}]}